{"type": "FeatureCollection", "features": [ {"type": "Feature", "properties": {"norad_id": 66653, "name": "2025-274D", "group": "last-30-days", "lat": -69.38691856850858, "lon": 64.95777646773426, "alt_km": 592.9387815250548, "timestamp": "2025-12-04T19:33:58.450137+00:00", "meta": {"OBJECT_NAME": "2025-274D", "OBJECT_ID": "2025-274D", "EPOCH": "2025-12-04T07:10:34.660128", "MEAN_MOTION": 14.91841883, "ECCENTRICITY": 0.00112269, "INCLINATION": 97.7384, "RA_OF_ASC_NODE": 265.6445, "ARG_OF_PERICENTER": 286.1132, "MEAN_ANOMALY": 73.8851, "EPHEMERIS_TYPE": 0, "CLASSIFICATION_TYPE": "U", "NORAD_CAT_ID": 66653, "ELEMENT_SET_NO": 999, "REV_AT_EPOCH": 114, "BSTAR": 0.00052688384, "MEAN_MOTION_DOT": 5.271e-05, "MEAN_MOTION_DDOT": 0}, "tle": {"line1": "1 66653U 25274D   25338.29901227  .00005271  00000+0  52688-3 0  9995", "line2": "2 66653  97.7384 265.6445 0011226 286.1132  73.8851 14.91841883  1148"}}, "geometry": {"type": "Point", "coordinates": [64.95777646773426, -69.38691856850858]}}, {"type": "Feature", "properties": {"norad_id": 66654, "name": "JACK E", "group": "last-30-days", "lat": -73.66401434361231, "lon": 58.51080557567691, "alt_km": 591.8716939913547, "timestamp": "2025-12-04T19:33:58.450145+00:00", "meta": {"OBJECT_NAME": "JACK E", "OBJECT_ID": "2025-274E", "EPOCH": "2025-12-04T07:09:23.295456", "MEAN_MOTION": 14.92010124, "ECCENTRICITY": 0.00118019, "INCLINATION": 97.7388, "RA_OF_ASC_NODE": 265.6459, "ARG_OF_PERICENTER": 287.6903, "MEAN_ANOMALY": 72.3027, "EPHEMERIS_TYPE": 0, "CLASSIFICATION_TYPE": "U", "NORAD_CAT_ID": 66654, "ELEMENT_SET_NO": 999, "REV_AT_EPOCH": 114, "BSTAR": 0.00065044329, "MEAN_MOTION_DOT": 6.55e-05, "MEAN_MOTION_DDOT": 0}, "tle": {"line1": "1 66654U 25274E   25338.29818629  .00006550  00000+0  65044-3 0  9990", "line2": "2 66654  97.7388 265.6459 0011801 287.6903  72.3027 14.92010124  1145"}}, "geometry": {"type": "Point", "coordinates": [58.51080557567691, -73.66401434361231]}}, {"type": "Feature", "properties": {"norad_id": 66655, "name": "2025-274F", "group": "last-30-days", "lat": -77.42535241892114, "lon": 48.60600620473776, "alt_km": 595.1116623408752, "timestamp": "2025-12-04T19:33:58.450154+00:00", "meta": {"OBJECT_NAME": "2025-274F", "OBJECT_ID": "2025-274F", "EPOCH": "2025-12-04T05:31:45.048864", "MEAN_MOTION": 14.92233374, "ECCENTRICITY": 0.00078092, "INCLINATION": 97.7363, "RA_OF_ASC_NODE": 265.5807, "ARG_OF_PERICENTER": 316.271, "MEAN_ANOMALY": 43.7889, "EPHEMERIS_TYPE": 0, "CLASSIFICATION_TYPE": "U", "NORAD_CAT_ID": 66655, "ELEMENT_SET_NO": 999, "REV_AT_EPOCH": 113, "BSTAR": 0.00065086112, "MEAN_MOTION_DOT": 6.587e-05, "MEAN_MOTION_DDOT": 0}, "tle": {"line1": "1 66655U 25274F   25338.23038251  .00006587  00000+0  65086-3 0  9996", "line2": "2 66655  97.7363 265.5807 0007809 316.2710  43.7889 14.92233374  1134"}}, "geometry": {"type": "Point", "coordinates": [48.60600620473776, -77.42535241892114]}}, {"type": "Feature", "properties": {"norad_id": 66656, "name": "2025-274G", "group": "last-30-days", "lat": -78.01180897570063, "lon": 46.334550425031786, "alt_km": 590.6704460641713, "timestamp": "2025-12-04T19:33:58.450163+00:00", "meta": {"OBJECT_NAME": "2025-274G", "OBJECT_ID": "2025-274G", "EPOCH": "2025-12-04T07:08:04.124544", "MEAN_MOTION": 14.92193852, "ECCENTRICITY": 0.00124407, "INCLINATION": 97.7385, "RA_OF_ASC_NODE": 265.647, "ARG_OF_PERICENTER": 289.2417, "MEAN_ANOMALY": 70.7456, "EPHEMERIS_TYPE": 0, "CLASSIFICATION_TYPE": "U", "NORAD_CAT_ID": 66656, "ELEMENT_SET_NO": 999, "REV_AT_EPOCH": 114, "BSTAR": 0.00072889526, "MEAN_MOTION_DOT": 7.383e-05, "MEAN_MOTION_DDOT": 0}, "tle": {"line1": "1 66656U 25274G   25338.29726996  .00007383  00000+0  72890-3 0  9999", "line2": "2 66656  97.7385 265.6470 0012440 289.2417  70.7456 14.92193852  1143"}}, "geometry": {"type": "Point", "coordinates": [46.334550425031786, -78.01180897570063]}}, {"type": "Feature", "properties": {"norad_id": 66657, "name": "SPIRONE", "group": "last-30-days", "lat": -81.29545306011029, "lon": 23.514246556791445, "alt_km": 592.014981420125, "timestamp": "2025-12-04T19:33:58.450172+00:00", "meta": {"OBJECT_NAME": "SPIRONE", "OBJECT_ID": "2025-274H", "EPOCH": "2025-12-04T05:30:12.998304", "MEAN_MOTION": 14.92372167, "ECCENTRICITY": 0.00110869, "INCLINATION": 97.7384, "RA_OF_ASC_NODE": 265.582, "ARG_OF_PERICENTER": 308.6851, "MEAN_ANOMALY": 51.3376, "EPHEMERIS_TYPE": 0, "CLASSIFICATION_TYPE": "U", "NORAD_CAT_ID": 66657, "ELEMENT_SET_NO": 999, "REV_AT_EPOCH": 113, "BSTAR": 0.00070024403, "MEAN_MOTION_DOT": 7.12e-05, "MEAN_MOTION_DDOT": 0}, "tle": {"line1": "1 66657U 25274H   25338.22931711  .00007120  00000+0  70024-3 0  9992", "line2": "2 66657  97.7384 265.5820 0011086 308.6851  51.3376 14.92372167  1137"}}, "geometry": {"type": "Point", "coordinates": [23.514246556791445, -81.29545306011029]}}, {"type": "Feature", "properties": {"norad_id": 66658, "name": "2025-274J", "group": "last-30-days", "lat": -82.17342690394236, "lon": -12.236771894527973, "alt_km": 590.9869273561944, "timestamp": "2025-12-04T19:33:58.450181+00:00", "meta": {"OBJECT_NAME": "2025-274J", "OBJECT_ID": "2025-274J", "EPOCH": "2025-12-04T07:05:28.547520", "MEAN_MOTION": 14.92547645, "ECCENTRICITY": 0.00116402, "INCLINATION": 97.7385, "RA_OF_ASC_NODE": 265.6489, "ARG_OF_PERICENTER": 311.4389, "MEAN_ANOMALY": 48.5829, "EPHEMERIS_TYPE": 0, "CLASSIFICATION_TYPE": "U", "NORAD_CAT_ID": 66658, "ELEMENT_SET_NO": 999, "REV_AT_EPOCH": 114, "BSTAR": 0.00068929715, "MEAN_MOTION_DOT": 7.04e-05, "MEAN_MOTION_DDOT": 0}, "tle": {"line1": "1 66658U 25274J   25338.29546930  .00007040  00000+0  68930-3 0  9999", "line2": "2 66658  97.7385 265.6489 0011640 311.4389  48.5829 14.92547645  1142"}}, "geometry": {"type": "Point", "coordinates": [-12.236771894527973, -82.17342690394236]}}, {"type": "Feature", "properties": {"norad_id": 66659, "name": "JACK K", "group": "last-30-days", "lat": -79.8606370640707, "lon": -44.33967872558132, "alt_km": 589.6159157672046, "timestamp": "2025-12-04T19:33:58.450190+00:00", "meta": {"OBJECT_NAME": "JACK K", "OBJECT_ID": "2025-274K", "EPOCH": "2025-12-04T05:27:35.013312", "MEAN_MOTION": 14.92732692, "ECCENTRICITY": 0.00123589, "INCLINATION": 97.7386, "RA_OF_ASC_NODE": 265.5845, "ARG_OF_PERICENTER": 312.6823, "MEAN_ANOMALY": 47.3354, "EPHEMERIS_TYPE": 0, "CLASSIFICATION_TYPE": "U", "NORAD_CAT_ID": 66659, "ELEMENT_SET_NO": 999, "REV_AT_EPOCH": 113, "BSTAR": 0.00068482535, "MEAN_MOTION_DOT": 7.028e-05, "MEAN_MOTION_DDOT": 0}, "tle": {"line1": "1 66659U 25274K   25338.22748858  .00007028  00000+0  68483-3 0  9995", "line2": "2 66659  97.7386 265.5845 0012358 312.6823  47.3354 14.92732692  1139"}}, "geometry": {"type": "Point", "coordinates": [-44.33967872558132, -79.8606370640707]}}, {"type": "Feature", "properties": {"norad_id": 66660, "name": "K-HERO", "group": "last-30-days", "lat": -76.62689297549748, "lon": -58.943534617082584, "alt_km": 588.4206360187873, "timestamp": "2025-12-04T19:33:58.450200+00:00", "meta": {"OBJECT_NAME": "K-HERO", "OBJECT_ID": "2025-274L", "EPOCH": "2025-12-04T07:03:00.666144", "MEAN_MOTION": 14.92883607, "ECCENTRICITY": 0.00130193, "INCLINATION": 97.7391, "RA_OF_ASC_NODE": 265.6518, "ARG_OF_PERICENTER": 312.8805, "MEAN_ANOMALY": 47.132, "EPHEMERIS_TYPE": 0, "CLASSIFICATION_TYPE": "U", "NORAD_CAT_ID": 66660, "ELEMENT_SET_NO": 999, "REV_AT_EPOCH": 114, "BSTAR": 0.00066102276, "MEAN_MOTION_DOT": 6.808e-05, "MEAN_MOTION_DDOT": 0}, "tle": {"line1": "1 66660U 25274L   25338.29375771  .00006808  00000+0  66102-3 0  9995", "line2": "2 66660  97.7391 265.6518 0013019 312.8805  47.1320 14.92883607  1147"}}, "geometry": {"type": "Point", "coordinates": [-58.943534617082584, -76.62689297549748]}}, {"type": "Feature", "properties": {"norad_id": 66661, "name": "SNUGLITE-III", "group": "last-30-days", "lat": -72.79716297524263, "lon": -67.78047510890951, "alt_km": 587.2119174015615, "timestamp": "2025-12-04T19:33:58.450210+00:00", "meta": {"OBJECT_NAME": "SNUGLITE-III", "OBJECT_ID": "2025-274M", "EPOCH": "2025-12-03T18:09:48.994848", "MEAN_MOTION": 14.93022901, "ECCENTRICITY": 0.00137618, "INCLINATION": 97.7384, "RA_OF_ASC_NODE": 265.1254, "ARG_OF_PERICENTER": 315.3921, "MEAN_ANOMALY": 44.619, "EPHEMERIS_TYPE": 0, "CLASSIFICATION_TYPE": "U", "NORAD_CAT_ID": 66661, "ELEMENT_SET_NO": 999, "REV_AT_EPOCH": 106, "BSTAR": 0.00042363869, "MEAN_MOTION_DOT": 4.358e-05, "MEAN_MOTION_DDOT": 0}, "tle": {"line1": "1 66661U 25274M   25337.75681707  .00004358  00000+0  42364-3 0  9997", "line2": "2 66661  97.7384 265.1254 0013761 315.3921  44.6190 14.93022901  1064"}}, "geometry": {"type": "Point", "coordinates": [-67.78047510890951, -72.79716297524263]}}, {"type": "Feature", "properties": {"norad_id": 66662, "name": "2025-274N", "group": "last-30-days", "lat": -71.03511548274014, "lon": -70.52210323678275, "alt_km": 586.6020941476254, "timestamp": "2025-12-04T19:33:58.450219+00:00", "meta": {"OBJECT_NAME": "2025-274N", "OBJECT_ID": "2025-274N", "EPOCH": "2025-12-04T07:01:23.193120", "MEAN_MOTION": 14.93089117, "ECCENTRICITY": 0.00141018, "INCLINATION": 97.7387, "RA_OF_ASC_NODE": 265.653, "ARG_OF_PERICENTER": 312.9035, "MEAN_ANOMALY": 47.1, "EPHEMERIS_TYPE": 0, "CLASSIFICATION_TYPE": "U", "NORAD_CAT_ID": 66662, "ELEMENT_SET_NO": 999, "REV_AT_EPOCH": 114, "BSTAR": 0.00038821974, "MEAN_MOTION_DOT": 3.995e-05, "MEAN_MOTION_DDOT": 0}, "tle": {"line1": "1 66662U 25274N   25338.29262955  .00003995  00000+0  38822-3 0  9998", "line2": "2 66662  97.7387 265.6530 0014101 312.9035  47.1000 14.93089117  1147"}}, "geometry": {"type": "Point", "coordinates": [-70.52210323678275, -71.03511548274014]}}]}